start=new Date('2022-09-23T00:00:00.000Z').valueOf();
sats=[{"BSTAR":"-0.08781200000000","COUNTRY_CODE":"US","PERIAPSIS":"539.871","ARG_OF_PERICENTER":"63.9957","FILE":"3580594","ECCENTRICITY":"0.00019070","NORAD_CAT_ID":"53486","GP_ID":"213263151","EPOCH":"2022-09-22T22:00:00.999936","APOAPSIS":"542.510","REF_FRAME":"TEME","MEAN_MOTION_DOT":"-0.01246201","OBJECT_ID":"2022-099X","RA_OF_ASC_NODE":"25.7879","CENTER_NAME":"EARTH","MEAN_ANOMALY":"306.9558","DECAY_DATE":null,"PERIOD":"95.467","SITE":"AFWTR","TLE_LINE1":"1 53486U 22099X   22265.91667824 -.01246201  00000-0 -87812-1 0  9993","EPHEMERIS_TYPE":"0","MEAN_ELEMENT_THEORY":"SGP4","SEMIMAJOR_AXIS":"6919.325","RCS_SIZE":"LARGE","CLASSIFICATION_TYPE":"U","LAUNCH_DATE":"2022-08-12","MEAN_MOTION":"15.08367424","TIME_SYSTEM":"UTC","ELEMENT_SET_NO":"999","OBJECT_TYPE":"PAYLOAD","REV_AT_EPOCH":"130","INCLINATION":"97.6557","TLE_LINE2":"2 53486  97.6557  25.7879 0001907  63.9957 306.9558 15.08367424  1301","MEAN_MOTION_DDOT":"0.0000000000000","OBJECT_NAME":"STARLINK-4431"},{"ARG_OF_PERICENTER":"64.6687","PERIAPSIS":"537.486","COUNTRY_CODE":"US","BSTAR":"-0.08483100000000","GP_ID":"213262376","EPOCH":"2022-09-22T22:00:00.999936","NORAD_CAT_ID":"53487","ECCENTRICITY":"0.00020640","FILE":"3580594","RA_OF_ASC_NODE":"25.7942","MEAN_MOTION_DOT":"-0.01230223","OBJECT_ID":"2022-099Y","REF_FRAME":"TEME","APOAPSIS":"540.341","TLE_LINE1":"1 53487U 22099Y   22265.91667824 -.01230223  00000-0 -84831-1 0  9999","SITE":"AFWTR","DECAY_DATE":null,"PERIOD":"95.420","CENTER_NAME":"EARTH","MEAN_ANOMALY":"355.0917","SEMIMAJOR_AXIS":"6917.049","MEAN_ELEMENT_THEORY":"SGP4","EPHEMERIS_TYPE":"0","LAUNCH_DATE":"2022-08-12","CLASSIFICATION_TYPE":"U","RCS_SIZE":"LARGE","TIME_SYSTEM":"UTC","MEAN_MOTION":"15.09112160","TLE_LINE2":"2 53487  97.6553  25.7942 0002064  64.6687 355.0917 15.09112160  1302","MEAN_MOTION_DDOT":"0.0000000000000","OBJECT_NAME":"STARLINK-4432","INCLINATION":"97.6553","REV_AT_EPOCH":"130","OBJECT_TYPE":"PAYLOAD","ELEMENT_SET_NO":"999"},{"MEAN_MOTION_DDOT":"0.0000000000000","TLE_LINE2":"2 53488  97.6556  25.7915 0002051  56.1783 332.6253 15.08680216  1300","OBJECT_NAME":"STARLINK-4421","ELEMENT_SET_NO":"999","OBJECT_TYPE":"PAYLOAD","REV_AT_EPOCH":"130","INCLINATION":"97.6556","MEAN_MOTION":"15.08680216","TIME_SYSTEM":"UTC","CLASSIFICATION_TYPE":"U","RCS_SIZE":"LARGE","LAUNCH_DATE":"2022-08-12","EPHEMERIS_TYPE":"0","MEAN_ELEMENT_THEORY":"SGP4","SEMIMAJOR_AXIS":"6918.369","SITE":"AFWTR","TLE_LINE1":"1 53488U 22099Z   22265.91667824 -.01314414  00000-0 -90965-1 0  9990","CENTER_NAME":"EARTH","MEAN_ANOMALY":"332.6253","PERIOD":"95.448","DECAY_DATE":null,"OBJECT_ID":"2022-099Z","MEAN_MOTION_DOT":"-0.01314414","RA_OF_ASC_NODE":"25.7915","APOAPSIS":"541.653","REF_FRAME":"TEME","GP_ID":"213263308","EPOCH":"2022-09-22T22:00:00.999936","FILE":"3580594","ECCENTRICITY":"0.00020510","NORAD_CAT_ID":"53488","COUNTRY_CODE":"US","PERIAPSIS":"538.815","ARG_OF_PERICENTER":"56.1783","BSTAR":"-0.09096500000000"},{"ARG_OF_PERICENTER":"45.8152","PERIAPSIS":"537.109","COUNTRY_CODE":"US","BSTAR":"-0.08411300000000","GP_ID":"213262219","EPOCH":"2022-09-22T22:00:00.999936","NORAD_CAT_ID":"53489","ECCENTRICITY":"0.00023680","FILE":"3580594","RA_OF_ASC_NODE":"25.7927","OBJECT_ID":"2022-099AA","MEAN_MOTION_DOT":"-0.01222409","REF_FRAME":"TEME","APOAPSIS":"540.385","TLE_LINE1":"1 53489U 22099AA  22265.91667824 -.01222409  00000-0 -84113-1 0  9991","SITE":"AFWTR","DECAY_DATE":null,"PERIOD":"95.417","CENTER_NAME":"EARTH","MEAN_ANOMALY":"19.0308","SEMIMAJOR_AXIS":"6916.882","MEAN_ELEMENT_THEORY":"SGP4","EPHEMERIS_TYPE":"0","LAUNCH_DATE":"2022-08-12","RCS_SIZE":"LARGE","CLASSIFICATION_TYPE":"U","TIME_SYSTEM":"UTC","MEAN_MOTION":"15.09166626","TLE_LINE2":"2 53489  97.6556  25.7927 0002368  45.8152  19.0308 15.09166626  1302","MEAN_MOTION_DDOT":"0.0000000000000","OBJECT_NAME":"STARLINK-4392","INCLINATION":"97.6556","REV_AT_EPOCH":"130","OBJECT_TYPE":"PAYLOAD","ELEMENT_SET_NO":"999"},{"LAUNCH_DATE":"2022-08-12","RCS_SIZE":"LARGE","CLASSIFICATION_TYPE":"U","SEMIMAJOR_AXIS":"6917.475","MEAN_ELEMENT_THEORY":"SGP4","EPHEMERIS_TYPE":"0","MEAN_MOTION_DDOT":"0.0000000000000","TLE_LINE2":"2 53490  97.6556  25.7946 0002101  55.8369 355.3095 15.08972794  1300","OBJECT_NAME":"STARLINK-4387","INCLINATION":"97.6556","REV_AT_EPOCH":"130","OBJECT_TYPE":"PAYLOAD","ELEMENT_SET_NO":"999","TIME_SYSTEM":"UTC","MEAN_MOTION":"15.08972794","EPOCH":"2022-09-22T22:00:00.999936","GP_ID":"213262949","NORAD_CAT_ID":"53490","ECCENTRICITY":"0.00021010","FILE":"3580594","ARG_OF_PERICENTER":"55.8369","PERIAPSIS":"537.886","COUNTRY_CODE":"US","BSTAR":"-0.08448700000000","TLE_LINE1":"1 53490U 22099AB  22265.91667824 -.01221353  00000-0 -84487-1 0  9994","SITE":"AFWTR","PERIOD":"95.429","DECAY_DATE":null,"CENTER_NAME":"EARTH","MEAN_ANOMALY":"355.3095","RA_OF_ASC_NODE":"25.7946","MEAN_MOTION_DOT":"-0.01221353","OBJECT_ID":"2022-099AB","REF_FRAME":"TEME","APOAPSIS":"540.793"},{"RCS_SIZE":"LARGE","CLASSIFICATION_TYPE":"U","LAUNCH_DATE":"2022-08-12","MEAN_ELEMENT_THEORY":"SGP4","SEMIMAJOR_AXIS":"6916.113","EPHEMERIS_TYPE":"0","REV_AT_EPOCH":"130","INCLINATION":"97.6554","ELEMENT_SET_NO":"999","OBJECT_TYPE":"PAYLOAD","TLE_LINE2":"2 53491  97.6554  25.7917 0002247  51.4897  26.9092 15.09418248  1304","MEAN_MOTION_DDOT":"0.0000000000000","OBJECT_NAME":"STARLINK-4450","MEAN_MOTION":"15.09418248","TIME_SYSTEM":"UTC","ECCENTRICITY":"0.00022470","NORAD_CAT_ID":"53491","FILE":"3580594","GP_ID":"213262784","EPOCH":"2022-09-22T22:00:00.999936","BSTAR":"-0.08812100000000","ARG_OF_PERICENTER":"51.4897","COUNTRY_CODE":"US","PERIAPSIS":"536.424","CENTER_NAME":"EARTH","MEAN_ANOMALY":"26.9092","DECAY_DATE":null,"PERIOD":"95.401","TLE_LINE1":"1 53491U 22099AC  22265.91667824 -.01300546  00000-0 -88121-1 0  9996","SITE":"AFWTR","APOAPSIS":"539.533","REF_FRAME":"TEME","RA_OF_ASC_NODE":"25.7917","MEAN_MOTION_DOT":"-0.01300546","OBJECT_ID":"2022-099AC"},{"SITE":"AFWTR","TLE_LINE1":"1 53492U 22099AD  22265.91667824 -.01323742  00000-0 -90426-1 0  9991","MEAN_ANOMALY":"6.0675","CENTER_NAME":"EARTH","DECAY_DATE":null,"PERIOD":"95.416","MEAN_MOTION_DOT":"-0.01323742","OBJECT_ID":"2022-099AD","RA_OF_ASC_NODE":"25.7922","APOAPSIS":"540.182","REF_FRAME":"TEME","EPOCH":"2022-09-22T22:00:00.999936","GP_ID":"213263106","FILE":"3580594","ECCENTRICITY":"0.00021110","NORAD_CAT_ID":"53492","COUNTRY_CODE":"US","PERIAPSIS":"537.261","ARG_OF_PERICENTER":"54.7235","BSTAR":"-0.09042600000000","MEAN_MOTION_DDOT":"0.0000000000000","TLE_LINE2":"2 53492  97.6553  25.7922 0002111  54.7235   6.0675 15.09175074  1305","OBJECT_NAME":"STARLINK-4451","ELEMENT_SET_NO":"999","OBJECT_TYPE":"PAYLOAD","INCLINATION":"97.6553","REV_AT_EPOCH":"130","MEAN_MOTION":"15.09175074","TIME_SYSTEM":"UTC","RCS_SIZE":"LARGE","CLASSIFICATION_TYPE":"U","LAUNCH_DATE":"2022-08-12","EPHEMERIS_TYPE":"0","MEAN_ELEMENT_THEORY":"SGP4","SEMIMAJOR_AXIS":"6916.856"},{"CLASSIFICATION_TYPE":"U","RCS_SIZE":"LARGE","LAUNCH_DATE":"2022-08-12","MEAN_ELEMENT_THEORY":"SGP4","SEMIMAJOR_AXIS":"6915.876","EPHEMERIS_TYPE":"0","TLE_LINE2":"2 53493  97.6555  25.7875 0002078  61.9257  25.2365 15.09495872  1301","OBJECT_NAME":"STARLINK-4361","MEAN_MOTION_DDOT":"0.0000000000000","REV_AT_EPOCH":"130","INCLINATION":"97.6555","ELEMENT_SET_NO":"999","OBJECT_TYPE":"PAYLOAD","MEAN_MOTION":"15.09495872","TIME_SYSTEM":"UTC","GP_ID":"213262628","EPOCH":"2022-09-22T22:00:00.999936","ECCENTRICITY":"0.00020780","NORAD_CAT_ID":"53493","FILE":"3580594","ARG_OF_PERICENTER":"61.9257","COUNTRY_CODE":"US","PERIAPSIS":"536.304","BSTAR":"-0.08344000000000","TLE_LINE1":"1 53493U 22099AE  22265.91667824 -.01223499  00000-0 -83440-1 0  9998","SITE":"AFWTR","CENTER_NAME":"EARTH","MEAN_ANOMALY":"25.2365","DECAY_DATE":null,"PERIOD":"95.396","RA_OF_ASC_NODE":"25.7875","OBJECT_ID":"2022-099AE","MEAN_MOTION_DOT":"-0.01223499","APOAPSIS":"539.178","REF_FRAME":"TEME"},{"EPHEMERIS_TYPE":"0","MEAN_ELEMENT_THEORY":"SGP4","SEMIMAJOR_AXIS":"6916.764","CLASSIFICATION_TYPE":"U","RCS_SIZE":"LARGE","LAUNCH_DATE":"2022-08-12","MEAN_MOTION":"15.09205290","TIME_SYSTEM":"UTC","OBJECT_NAME":"STARLINK-4340","TLE_LINE2":"2 53494  97.6556  25.7902 0002145  55.3782  12.5106 15.09205290  1304","MEAN_MOTION_DDOT":"0.0000000000000","ELEMENT_SET_NO":"999","OBJECT_TYPE":"PAYLOAD","INCLINATION":"97.6556","REV_AT_EPOCH":"130","COUNTRY_CODE":"US","PERIAPSIS":"537.145","ARG_OF_PERICENTER":"55.3782","BSTAR":"-0.08402800000000","EPOCH":"2022-09-22T22:00:00.999936","GP_ID":"213263152","FILE":"3580594","ECCENTRICITY":"0.00021450","NORAD_CAT_ID":"53494","OBJECT_ID":"2022-099AF","MEAN_MOTION_DOT":"-0.01222419","RA_OF_ASC_NODE":"25.7902","APOAPSIS":"540.113","REF_FRAME":"TEME","SITE":"AFWTR","TLE_LINE1":"1 53494U 22099AF  22265.91667824 -.01222419  00000-0 -84028-1 0  9993","CENTER_NAME":"EARTH","MEAN_ANOMALY":"12.5106","PERIOD":"95.414","DECAY_DATE":null},{"MEAN_ELEMENT_THEORY":"SGP4","SEMIMAJOR_AXIS":"6915.333","EPHEMERIS_TYPE":"0","RCS_SIZE":"LARGE","CLASSIFICATION_TYPE":"U","LAUNCH_DATE":"2022-08-12","MEAN_MOTION":"15.09673651","TIME_SYSTEM":"UTC","TLE_LINE2":"2 53495  97.6551  25.7879 0002124  64.7149  31.0316 15.09673651  1300","MEAN_MOTION_DDOT":"0.0000000000000","OBJECT_NAME":"STARLINK-4429","REV_AT_EPOCH":"130","INCLINATION":"97.6551","ELEMENT_SET_NO":"999","OBJECT_TYPE":"PAYLOAD","ARG_OF_PERICENTER":"64.7149","COUNTRY_CODE":"US","PERIAPSIS":"535.730","BSTAR":"-0.08866200000000","GP_ID":"213262377","EPOCH":"2022-09-22T22:00:00.999936","ECCENTRICITY":"0.00021240","NORAD_CAT_ID":"53495","FILE":"3580594","RA_OF_ASC_NODE":"25.7879","MEAN_MOTION_DOT":"-0.01316443","OBJECT_ID":"2022-099AG","APOAPSIS":"538.667","REF_FRAME":"TEME","TLE_LINE1":"1 53495U 22099AG  22265.91667824 -.01316443  00000-0 -88662-1 0  9993","SITE":"AFWTR","CENTER_NAME":"EARTH","MEAN_ANOMALY":"31.0316","DECAY_DATE":null,"PERIOD":"95.385"}];
